NUSAT-1 (FRESCO)        
1 41557U 16033B   22347.20691633  .00024372  00000+0  60314-3 0  9997
2 41557  97.3905  85.8440 0010896  97.9450 283.4719 15.40374226364847
BEESAT-4                
1 41619U 16040W   22346.88459889  .00022512  00000+0  61646-3 0  9995
2 41619  97.1921  33.1531 0007602 183.0618 177.0582 15.37305412348073
CAS-2T & KS-1Q          
1 41847U 16066G   22346.79617719  .00000816  00000+0  13088-3 0  9994
2 41847  98.5304  51.1097 0363186  36.3422 326.1848 14.38949220319990
NAYIF-1 (EO-88)         
1 42017U 17008BX  22346.60602032  .00029835  00000+0  69600-3 0  9996
2 42017  97.2468  50.7003 0003358 344.9602  15.1545 15.42174637324453
ZHUHAI-1 02 (CAS-4B)    
1 42759U 17034B   22347.13622963  .00006342  00000+0  35996-3 0  9991
2 42759  43.0174  66.7872 0011212 335.8259 100.9396 15.13485909303410
ZHUHAI-1 01 (CAS-4A)    
1 42761U 17034D   22347.09429264  .00006601  00000+0  37312-3 0  9990
2 42761  43.0177  65.6771 0011339 336.6262  92.5238 15.13581271303415
MAX VALIER SAT          
1 42778U 17036P   22346.85336443  .00012867  00000+0  43779-3 0  9994
2 42778  97.1835  21.9679 0011463  56.7190 303.5148 15.30492033304157
RADFXSAT (FOX-1B)       
1 43017U 17073E   22346.95117680  .00007084  00000+0  52289-3 0  9994
2 43017  97.6523 233.7671 0242907 322.9467  35.5184 14.82901703273558
FOX-1D (AO-92)          
1 43137U 18004AC  22346.44155479  .00017164  00000+0  52901-3 0  9995
2 43137  97.3521  60.2781 0008464  90.3554 269.8658 15.33639709273584
DIWATA-2B               
1 43678U 18084H   22347.07221280  .00001330  00000+0  13512-3 0  9990
2 43678  97.9946 122.7565 0010978  60.9549 299.2786 14.92542950224495
ES'HAIL 2               
1 43700U 18090A   22346.88452303  .00000161  00000+0  00000+0 0  9998
2 43700   0.0168 298.2257 0001600 357.0634 130.5174  1.00272566 14815
FOX-1CLIFF (AO-95)      
1 43770U 18099N   22346.87373590  .00003337  00000+0  29101-3 0  9998
2 43770  97.6010  48.4863 0015074  42.7952 317.4441 14.97441752219702
ITASAT 1                
1 43786U 18099AE  22346.58926271  .00003209  00000+0  28005-3 0  9993
2 43786  97.6027  49.2135 0015211  36.7065 323.5196 14.97441871219706
JY1SAT (JO-97)          
1 43803U 18099AX  22346.87057469  .00004268  00000+0  36373-3 0  9992
2 43803  97.6003  49.3158 0015397  35.5059 324.7185 14.98180224219772
UWE-4                   
1 43880U 18111E   22346.40434689  .00004330  00000+0  35851-3 0  9994
2 43880  97.6560 249.5909 0012539  87.1407 273.1251 14.99330107216358
NEXUS (FO-99)           
1 43937U 19003F   22347.02880844  .00018271  00000+0  52107-3 0  9997
2 43937  97.1120  13.8059 0016344 229.5663 130.4157 15.35972940217337
PSAT2 (NO-104)          
1 44354U 19036R   22347.07607912  .00150516 -55242-6  69127-3 0  9990
2 44354  28.5214 357.9811 0137070 220.1318 138.9096 15.69386919192446
JAISAT-1                
1 44419U 19038F   22346.65327169  .00011238  00000+0  51084-3 0  9994
2 44419  97.6586 318.8163 0015785 231.4654 128.5167 15.20811010190106
DUCHIFAT-3              
1 44854U 19089C   22347.13321441  .00005832  00000+0  43552-3 0  9998
2 44854  36.9635 120.0353 0007825 242.5275 286.6909 15.02560128164801
CAS-6 (TIANQIN 1)       
1 44881U 19093C   22347.25034112  .00000836  00000+0  11195-3 0  9999
2 44881  97.8806  63.7872 0014191 329.1467  30.8926 14.81968156161258
RS-44 & BREEZE-KM R/B   
1 44909U 19096E   22346.44570267  .00000024  00000+0  60294-4 0  9993
2 44909  82.5205 112.0361 0216470 263.5013  94.1403 12.79716955138278
ORBITAL FACTORY 2 (OF-2)
1 45113U 19071C   22346.16145994  .00073863  00000+0  91549-3 0  9995
2 45113  51.6347 257.8654 0011513 113.7297 246.4905 15.59305173160950
HUSKYSAT-1 (HO-107)     
1 45119U 19071J   22346.16702424  .00057786  00000+0  80845-3 0  9991
2 45119  51.6343 260.1180 0011167 108.8643 251.3560 15.56181134160912
BY70-2                  
1 45857U 20042B   22347.27199833  .00011101  00000+0  13858-2 0  9997
2 45857  97.9443  62.5893 0009218 249.9594 110.0675 14.82521611131929
SALSAT                  
1 46495U 20068K   22346.49150936  .00002845  00000+0  20192-3 0  9993
2 46495  97.7502 288.1075 0017535  39.1713 321.0778 15.05454438120961
BY70-3                  
1 46839U 20079N   22347.15966455  .00053048  00000+0  83658-3 0  9999
2 46839  97.1792  57.8569 0004661  54.6600  29.9503 15.53364467117860
RADFXSAT-2 (AO-109)     
1 47311U 21002C   22346.65977262  .00011928  00000+0  42161-3 0  9999
2 47311  60.6850  49.8357 0038814  81.8682 278.6808 15.28920331105689
UVSQ-SAT                
1 47438U 21006AB  22346.60565369  .00007815  00000+0  38543-3 0  9998
2 47438  97.4139  41.9839 0011804  23.8760 336.3019 15.18131378104283
DIY-1 (ARDUIQUBE)       
1 47963U 21022AH  22346.70252763  .00028983  00000+0  13041-2 0  9995
2 47963  97.5169 246.5974 0011646 234.7972 125.2174 15.20993978 93969
XW-3 (CAS-9)            
1 50466U 21131B   22347.20714430  .00000348  00000+0  12832-3 0  9991
2 50466  98.5684  64.2622 0003933 348.8130  11.2969 14.38592741 50614
TEVEL-3                 
1 50988U 22002E   22347.14480946  .00011828  00000+0  59552-3 0  9998
2 50988  97.4620  51.2440 0009645 157.3836 258.3306 15.17308481 50485
TEVEL-8                 
1 50989U 22002F   22347.02748361  .00011943  00000+0  60232-3 0  9999
2 50989  97.4629  51.1649 0009595 156.1571 276.7955 15.17250254 50468
TEVEL-5                 
1 50998U 22002Q   22347.24082907  .00012471  00000+0  61750-3 0  9993
2 50998  97.4606  51.5471 0011142 152.1772 279.7503 15.17867433 50511
TEVEL-6                 
1 50999U 22002R   22347.23494786  .00012467  00000+0  61716-3 0  9992
2 50999  97.4609  51.5382 0011282 152.0688 252.9034 15.17873747 50513
TEVEL-1                 
1 51013U 22002AF  22347.15068747  .00011883  00000+0  59878-3 0  9992
2 51013  97.4611  51.2152 0009549 157.1297 261.2791 15.17279133 50489
TEVEL-7                 
1 51062U 22002CG  22347.15344627  .00012057  00000+0  60792-3 0  9991
2 51062  97.4626  51.2692 0009643 155.3536 233.9720 15.17253374 50486
TEVEL-4                 
1 51063U 22002CH  22347.15522436  .00011974  00000+0  60410-3 0  9992
2 51063  97.4620  51.2644 0009621 155.3395 233.7041 15.17234414 50485
TEVEL-2                 
1 51069U 22002CP  22347.14196039  .00011862  00000+0  59734-3 0  9996
2 51069  97.4614  51.2200 0009506 156.6878 233.7783 15.17304073 50486
GREENCUBE               
1 53106U 22080B   22340.05508001 -.00000003  00000+0  00000+0 0  9999
2 53106  70.1754  26.8219 0009008 228.0435 131.9458  6.42557522  9345
YUZGU 9 (RS3S)          
1 53308U 98067TT  22347.20077583  .00166018  00000+0  12563-2 0  9999
2 53308  51.6336 161.1985 0007152 209.7419 150.3174 15.71333398 22607
YUZGU 7 (RS1S)          
1 53309U 98067TU  22346.92096670  .00148424  00000+0  10909-2 0  9999
2 53309  51.6330 162.3215 0007742 211.9297 148.1233 15.72078651 22515
YUZGU 11 (RS5S)         
1 53310U 98067TV  22346.94513863  .00139457  00000+0  10613-2 0  9999
2 53310  51.6338 162.4902 0007514 209.4964 150.5611 15.71286806 22541
YUZGU 12 (RS6S)         
1 53311U 98067TW  22346.95774619  .00165689  00000+0  11690-2 0  9991
2 53311  51.6329 161.8139 0007218 209.9234 150.1353 15.72987825 22575
TSIOLKOVSKY-RYAZAN 1 (*)
1 53312U 98067TX  22346.92572184  .00141943  00000+0  10602-2 0  9991
2 53312  51.6340 162.3618 0007878 212.1776 147.8743 15.71718906 22506
TSIOLKOVSKY-RYAZAN 2 (*)
1 53313U 98067TY  22346.98387628  .00150303  00000+0  11138-2 0  9990
2 53313  51.6341 162.0007 0007425 213.8833 146.1691 15.71881470 22564
YUZGU 10 (RS4S)         
1 53321U 98067TZ  22347.18904453  .00169777  00000+0  12617-2 0  9991
2 53321  51.6331 161.1189 0007380 211.6345 148.4210 15.71748578 22593
RS29S (SXC3-2110 CYCLO*)
1 53373U 22096D   22347.18621435  .00016604  00000+0  61819-3 0  9992
2 53373  97.4285 247.8706 0003334  81.1322  74.5079 15.27547029 19196
RS32S (SXC3-212 MONITO*)
1 53374U 22096E   22347.17580325  .00014901  00000+0  55474-3 0  9992
2 53374  97.4279 247.8713 0003435  75.0551  68.1035 15.27573997 19190
RS34S (SXC3-218 KUZBAS*)
1 53375U 22096F   22347.12378556  .00013791  00000+0  52024-3 0  9993
2 53375  97.4285 247.7896 0003479  80.0299  56.0768 15.27154785 19180
RS23S (SXC3-21 UTMN)    
1 53376U 22096G   22347.12061462  .00014153  00000+0  53252-3 0  9996
2 53376  97.4282 247.7965 0003469  75.8111  62.4122 15.27234157 19186
RS28S (SXC3-214 MIET-A*)
1 53377U 22096H   22347.12063734  .00013083  00000+0  49375-3 0  9993
2 53377  97.4286 247.7987 0003481  77.7380  61.5940 15.27151788 19184
RS26S (KAI-1)           
1 53378U 22096J   22347.19508365  .00011889  00000+0  45193-3 0  9991
2 53378  97.4284 247.8556 0003434  70.3730  83.1508 15.26937580 19194
RS19S (SXC3-219 ISOI)   
1 53381U 22096M   22347.14137778  .00013594  00000+0  50482-3 0  9998
2 53381  97.4282 247.9053 0005216  25.1172  81.0014 15.27671832 19192
RS21S (CUBESX-HSE-2)    
1 53383U 22096P   22347.07380420  .00013852  00000+0  51337-3 0  9993
2 53383  97.4290 247.8489 0005397  25.9734  87.8896 15.27731511 19189
RS30S (SXC3-217 SIREN)  
1 53384U 22096Q   22347.07802098  .00011700  00000+0  43673-3 0  9998
2 53384  97.4288 247.8426 0005458  24.8130  89.3890 15.27535874 19189
RS20S (GEOSCAN-EDELVEIS)
1 53385U 22096R   22347.10230523  .00017460  00000+0  63058-3 0  9999
2 53385  97.4281 247.9561 0005807  23.1985  84.2919 15.28528516 19229
RS33S (SXC3-215 VIZARD) 
1 53386U 22096S   22347.20135965  .00020517  00000+0  72122-3 0  9994
2 53386  97.4279 248.1462 0006603  21.8527 130.6184 15.29377073 19234
